TEVEL2-4                
1 63213U 25052D   26068.69417973  .00020990  00000+0  70363-3 0  9998
2 63213  97.4009 325.1237 0004733  95.3468 264.8313 15.30925813 54879
STARLINK-34066          
1 63909U 25095V   26068.34532877  .00044320  00000+0  16072-2 0  9999
2 63909  43.0035 178.2952 0003444 288.9698  71.0780 15.27642769 47725
